MEAN_MOTION;ECCENTRICITY;INCLINATION;RA_OF_ASC_NODE;ARG_OF_PERICENTER;MEAN_ANOMALY;BSTAR;MEAN_MOTION_DOT;MEAN_MOTION_DDOT;TYPE
14.547203;9.06E-5;47.0012;145.8271;43.2576;316.8379;2.0266E-5;-7.8E-7;0;Orbcomm
14.5472041;8.68E-5;47.0011;141.6333;49.1352;310.9607;1.913E-5;-8.3E-7;0;Orbcomm
14.54720451;8.63E-5;47.0011;140.6655;50.4249;309.6711;1.9205E-5;-8.2E-7;0;Orbcomm
14.54720625;8.28E-5;47.001;136.7943;56.2693;303.827;2.1366E-5;-7.3E-7;0;Orbcomm
14.5472065;8.26E-5;47.001;136.1491;57.3722;302.7242;2.115E-5;-7.4E-7;0;Orbcomm
14.54720812;7.98E-5;47.001;131.9552;64.5489;295.5477;2.2128E-5;-7.0E-7;0;Orbcomm
14.54720812;7.98E-5;47.001;131.9552;64.5489;295.5477;2.2128E-5;-7.0E-7;0;Orbcomm
14.54721016;7.7E-5;47.001;127.4387;72.3281;287.7687;2.352E-5;-6.4E-7;0;Orbcomm
14.54721218;7.52E-5;47.001;122.9223;80.4432;279.6537;2.4717E-5;-5.9E-7;0;Orbcomm
14.54721419;7.42E-5;47.0011;118.4058;88.8099;271.2871;2.4914E-5;-5.8E-7;0;Orbcomm
14.54721553;7.37E-5;47.0011;115.5023;94.2421;265.8548;2.4548E-5;-5.9E-7;0;Orbcomm
14.54721657;7.43E-5;47.0011;113.5668;97.8847;262.2121;2.5142E-5;-5.7E-7;0;Orbcomm
14.54721811;7.53E-5;47.0011;108.4051;107.2461;252.8505;2.148E-5;-7.3E-7;0;Orbcomm
14.54721997;7.75E-5;47.0011;104.2113;115.6433;244.4531;2.076E-5;-7.6E-7;0;Orbcomm
14.5472201;7.77E-5;47.0011;103.8886;116.2783;243.8181;2.0432E-5;-7.7E-7;0;Orbcomm
14.54722211;8.03E-5;47.0011;99.3721;124.2114;235.8846;2.0649E-5;-7.6E-7;0;Orbcomm
14.54722223;8.05E-5;47.0011;99.0495;124.7574;235.3386;2.0396E-5;-7.7E-7;0;Orbcomm
14.54722395;8.46E-5;47.0012;92.9199;134.9632;225.132;1.8528E-5;-8.5E-7;0;Orbcomm
14.547224;8.51E-5;47.0012;92.5973;135.6124;224.4828;1.8548E-5;-8.5E-7;0;Orbcomm
14.54722473;8.74E-5;47.0012;90.0164;138.9438;221.1512;1.8074E-5;-8.7E-7;0;Orbcomm
14.54722534;8.9E-5;47.0013;87.7581;142.4618;217.6328;1.7681E-5;-8.9E-7;0;Orbcomm
14.54722557;9.03E-5;47.0013;86.7902;143.6601;216.4345;1.6986E-5;-9.2E-7;0;Orbcomm
14.54722623;9.13E-5;47.0013;85.1773;145.2704;214.824;1.8103E-5;-8.7E-7;0;Orbcomm
14.54722679;9.29E-5;47.0014;83.2416;148.3335;211.7605;1.8562E-5;-8.5E-7;0;Orbcomm
14.54722725;9.31E-5;47.0014;81.9512;148.5323;211.5617;1.9438E-5;-8.1E-7;0;Orbcomm
14.54722831;9.44E-5;47.0014;80.6608;149.9481;210.1457;2.2203E-5;-6.9E-7;0;Orbcomm
14.54722915;9.67E-5;47.0015;78.4025;153.4146;206.6787;2.2225E-5;-6.9E-7;0;Orbcomm
14.54723065;9.94E-5;47.0016;76.1444;155.7946;204.2985;2.4517E-5;-6.0E-7;0;Orbcomm
14.54723164;0.0001017;47.0017;73.8861;158.8749;201.2177;2.4275E-5;-6.1E-7;0;Orbcomm
14.54723303;0.0001044;47.0018;71.3054;161.3221;198.7701;2.5234E-5;-5.6E-7;0;Orbcomm
14.54723406;0.0001071;47.0018;69.0471;164.346;195.7458;2.5206E-5;-5.7E-7;0;Orbcomm
14.54723596;0.0001122;47.002;64.8534;169.1708;190.9201;2.4325E-5;-6.0E-7;0;Orbcomm
14.54723578;0.0001132;47.002;64.5308;169.8649;190.2258;2.2721E-5;-6.7E-7;0;Orbcomm
14.54723699;0.000119;47.0022;59.6919;174.5778;185.5119;1.8432E-5;-8.6E-7;0;Orbcomm
14.54723696;0.0001193;47.0022;59.3693;174.5805;185.5092;1.7689E-5;-8.9E-7;0;Orbcomm
14.54723903;0.0001257;47.0023;54.2078;179.5713;180.5172;1.7933E-5;-8.8E-7;0;Orbcomm
14.54724152;0.0001297;47.0024;50.3367;183.01;177.0777;2.1082E-5;-7.4E-7;0;Orbcomm
14.54724221;0.0001314;47.0024;49.0464;183.9318;176.1556;2.2053E-5;-7.0E-7;0;Orbcomm
14.54724238;0.0001317;47.0024;48.7238;184.1533;175.9341;2.2091E-5;-7.0E-7;0;Orbcomm
14.54724389;0.0001354;47.0025;45.8204;187.0116;173.075;2.2728E-5;-6.7E-7;0;Orbcomm
14.54724531;0.0001377;47.0026;43.5623;188.9071;171.1789;2.4862E-5;-5.8E-7;0;Orbcomm
14.54724628;0.0001409;47.0027;40.9815;191.1026;168.9827;2.4424E-5;-6.0E-7;0;Orbcomm
14.54724808;0.0001459;47.0028;36.7878;194.6852;165.399;2.4542E-5;-5.9E-7;0;Orbcomm
14.54724829;0.0001473;47.0028;36.1426;195.0744;165.0096;2.3715E-5;-6.3E-7;0;Orbcomm
14.54725031;0.0001523;47.0029;31.9489;198.6898;161.3931;2.3939E-5;-6.2E-7;0;Orbcomm
14.54725063;0.0001527;47.0029;31.6263;198.7564;161.3264;2.4184E-5;-6.1E-7;0;Orbcomm
14.54725419;0.0001579;47.0031;26.7875;202.1684;157.9132;2.9589E-5;-3.8E-7;0;Orbcomm
14.54725474;0.0001586;47.0031;25.8198;202.8445;157.2369;3.0184E-5;-3.5E-7;0;Orbcomm
14.54725736;0.0001626;47.0031;22.2713;205.4694;154.611;3.1897E-5;-2.8E-7;0;Orbcomm
14.54725847;0.0001638;47.0032;20.981;206.4995;153.5805;3.3979E-5;-1.9E-7;0;Orbcomm
14.54726082;0.0001679;47.0032;17.4325;208.9621;151.117;3.3766E-5;-2.0E-7;0;Orbcomm
14.54726355;0.0001722;47.0032;13.2389;211.8922;148.1858;3.4461E-5;-1.7E-7;0;Orbcomm
14.54726637;0.0001761;47.0031;8.4001;215.2249;144.8519;3.3446E-5;-2.1E-7;0;Orbcomm
14.54726637;0.0001768;47.0031;8.0775;215.3547;144.722;3.2981E-5;-2.3E-7;0;Orbcomm
14.54726847;0.0001809;47.0031;3.5613;218.4919;141.5836;3.0591E-5;-3.3E-7;0;Orbcomm
14.54727027;0.0001847;47.003;359.6902;221.1309;138.9436;3.0338E-5;-3.4E-7;0;Orbcomm
14.54727279;0.0001907;47.0029;354.5285;223.6405;136.4329;2.8555E-5;-4.2E-7;0;Orbcomm
14.54727476;0.000194;47.0028;349.3671;227.3205;132.7516;2.6668E-5;-5.0E-7;0;Orbcomm
14.54727625;0.0001978;47.0028;345.496;230.1449;129.9262;2.5899E-5;-5.4E-7;0;Orbcomm
14.547277;0.0001987;47.0027;343.8831;230.9937;129.077;2.625E-5;-5.2E-7;0;Orbcomm
14.5472785;0.0002014;47.0027;340.0119;233.9813;126.0885;2.4963E-5;-5.8E-7;0;Orbcomm
14.54727909;0.0002017;47.0026;339.0442;234.6737;125.3959;2.5365E-5;-5.6E-7;0;Orbcomm
14.54728051;0.0002046;47.0026;335.1731;237.143;122.9258;2.4042E-5;-6.2E-7;0;Orbcomm
14.54728123;0.0002048;47.0025;334.2053;237.5235;122.5452;2.4515E-5;-6.0E-7;0;Orbcomm
14.54728258;0.0002077;47.0024;330.6567;239.597;120.4709;2.3892E-5;-6.2E-7;0;Orbcomm
14.54728404;0.0002094;47.0024;327.7534;241.6337;118.4336;2.4453E-5;-6.0E-7;0;Orbcomm
14.54728472;0.0002107;47.0023;326.1403;242.5574;117.5096;2.4551E-5;-6.0E-7;0;Orbcomm
14.54728546;0.0002124;47.0022;322.9143;244.442;115.6245;2.2404E-5;-6.9E-7;0;Orbcomm
14.54728569;0.0002126;47.0021;322.2692;244.943;115.1233;2.1582E-5;-7.2E-7;0;Orbcomm
14.54728905;0.0002173;47.0018;311.3008;251.543;108.5218;2.0241E-5;-7.8E-7;0;Orbcomm
14.54729087;0.0002195;47.0018;307.1069;254.1144;105.9498;2.1169E-5;-7.4E-7;0;Orbcomm
14.54729126;0.0002196;47.0018;306.4616;254.4314;105.6328;2.1262E-5;-7.4E-7;0;Orbcomm
14.54729316;0.0002215;47.0017;302.5904;256.7776;103.2861;2.2923E-5;-6.7E-7;0;Orbcomm
14.54729454;0.0002224;47.0017;299.6869;258.9012;101.1622;2.3686E-5;-6.3E-7;0;Orbcomm
14.54729603;0.0002231;47.0017;297.7513;259.8638;100.1994;2.5164E-5;-5.7E-7;0;Orbcomm
14.5472978;0.0002242;47.0017;293.5574;262.5533;97.5096;2.4447E-5;-6.0E-7;0;Orbcomm
14.54729803;0.0002241;47.0017;293.2348;262.7659;97.297;2.4716E-5;-5.9E-7;0;Orbcomm
14.54729959;0.0002252;47.0017;290.0087;264.3022;95.7605;2.3974E-5;-6.2E-7;0;Orbcomm
14.54730132;0.000226;47.0017;285.4923;267.1188;92.9437;2.2488E-5;-6.8E-7;0;Orbcomm
14.54730196;0.0002253;47.0017;283.8793;268.365;91.6976;2.2446E-5;-6.9E-7;0;Orbcomm
14.54730305;0.0002264;47.0017;280.9758;270.0269;90.0356;2.0877E-5;-7.5E-7;0;Orbcomm
14.54730329;0.0002257;47.0017;279.6855;270.9689;89.0936;2.0146E-5;-7.9E-7;0;Orbcomm
14.54730448;0.0002261;47.0016;276.1369;273.2071;86.8555;1.8955E-5;-8.4E-7;0;Orbcomm
14.54730498;0.0002257;47.0016;274.8465;274.0464;86.0162;1.9399E-5;-8.2E-7;0;Orbcomm
14.54730663;0.0002265;47.0016;271.2978;275.9689;84.0937;1.9776E-5;-8.0E-7;0;Orbcomm
14.54730738;0.000226;47.0016;270.0075;276.7647;83.298;2.1021E-5;-7.5E-7;0;Orbcomm
14.5473077;0.0002258;47.0016;269.6849;277.0699;82.9929;2.1624E-5;-7.2E-7;0;Orbcomm
14.54730918;0.0002251;47.0015;265.1685;279.8063;80.2567;2.1153E-5;-7.4E-7;0;Orbcomm
14.54730928;0.0002249;47.0015;264.8458;279.9915;80.0716;2.1012E-5;-7.5E-7;0;Orbcomm
14.54731086;0.0002246;47.0015;260.652;282.4884;77.5748;2.1865E-5;-7.1E-7;0;Orbcomm
14.54731231;0.0002241;47.0014;257.4258;284.1772;75.8863;2.2681E-5;-6.8E-7;0;Orbcomm
14.54731286;0.0002244;47.0014;255.8129;285.338;74.7256;2.2452E-5;-6.9E-7;0;Orbcomm
14.54731386;0.0002238;47.0015;252.5869;287.5766;72.4873;2.1509E-5;-7.3E-7;0;Orbcomm
14.54731575;0.0002217;47.0015;247.4253;290.9403;69.1243;2.2011E-5;-7.1E-7;0;Orbcomm
14.54731801;0.000219;47.0015;241.9411;294.6734;65.3922;2.1544E-5;-7.3E-7;0;Orbcomm
14.54731982;0.0002182;47.0015;238.3926;296.7972;63.2689;2.1536E-5;-7.3E-7;0;Orbcomm
14.5473204;0.0002173;47.0015;237.4248;297.606;62.4603;2.212E-5;-7.0E-7;0;Orbcomm
14.547323;0.0002159;47.0015;233.8763;299.7601;60.3068;2.505E-5;-5.7E-7;0;Orbcomm
14.54732329;0.0002147;47.0015;232.9085;300.6788;59.3884;2.4259E-5;-6.1E-7;0;Orbcomm
14.54732589;0.0002124;47.0014;228.0698;303.8072;56.261;2.4103E-5;-6.1E-7;0;Orbcomm
14.54732981;0.0002098;47.0013;224.1986;306.3687;53.7003;3.2211E-5;-2.6E-7;0;Orbcomm
14.54733016;0.0002075;47.0011;220.0048;308.9852;51.0847;2.5672E-5;-5.5E-7;0;Orbcomm
14.5473306;0.0002066;47.0011;219.0371;309.8186;50.2516;2.5914E-5;-5.4E-7;0;Orbcomm
14.54733293;0.0002034;47.0009;214.1981;313.1423;46.9291;2.6142E-5;-5.3E-7;0;Orbcomm
14.547335;0.0001999;47.0008;209.6816;316.1889;43.8836;2.6507E-5;-5.1E-7;0;Orbcomm
14.54733593;0.0001983;47.0008;207.1008;317.9348;42.1384;2.6057E-5;-5.3E-7;0;Orbcomm
14.54733699;0.0001958;47.0008;204.8427;319.635;40.4388;2.6151E-5;-5.3E-7;0;Orbcomm
14.54733836;0.0001922;47.0007;201.294;321.8663;38.2085;2.525E-5;-5.6E-7;0;Orbcomm
14.54733888;0.0001916;47.0007;200.3262;322.6314;37.4436;2.5351E-5;-5.6E-7;0;Orbcomm
14.54734081;0.0001883;47.0007;196.455;325.2369;34.8392;2.5351E-5;-5.6E-7;0;Orbcomm
14.5473409;0.0001881;47.0007;196.1325;325.5121;34.5641;2.521E-5;-5.7E-7;0;Orbcomm
14.5473411;0.0001877;47.0007;195.8099;325.8074;34.2689;2.5215E-5;-5.7E-7;0;Orbcomm
14.54734226;0.0001835;47.0006;191.616;328.7528;31.3246;2.2196E-5;-7.0E-7;0;Orbcomm
14.54734242;0.000183;47.0006;190.9709;329.3183;30.7594;2.1387E-5;-7.3E-7;0;Orbcomm
14.54734343;0.0001785;47.0005;186.777;332.3945;27.6844;1.843E-5;-8.6E-7;0;Orbcomm
14.54734355;0.0001782;47.0005;186.4544;332.6595;27.4195;1.8162E-5;-8.7E-7;0;Orbcomm
14.54734448;0.0001739;47.0004;181.938;336.2224;23.858;1.4991E-5;-1.01E-6;0;Orbcomm
14.547345;0.0001714;47.0003;179.3571;338.0475;22.0336;1.3927E-5;-1.05E-6;0;Orbcomm
